UPSAT                   
1 42716U 98067LX  17314.42905802  .00029398  00000-0  33298-3 0  9995
2 42716  51.6390  24.5576 0002515 137.4213 222.6976 15.62149630 27447
SPACECUBE               
1 42717U 98067LY  17314.41700878  .00024351  00000-0  28998-3 0  9996
2 42717  51.6390  25.2257 0002838 140.4692 219.6509 15.60957712 26673
HOOPOE                  
1 42718U 98067LZ  17314.45480466  .00027969  00000-0  32411-3 0  9992
2 42718  51.6390  24.7282 0002649 135.6254 224.4953 15.61585302 26687
CHALLENGER              
1 42721U 98067MA  17314.47139916  .00040601  00000-0  43330-3 0  9999
2 42721  51.6378  24.0766 0004847 113.8664 246.2839 15.63507697 26398
NJUST-1                 
1 42722U 98067MB  17314.42925638  .00020974  00000-0  26320-3 0  9990
2 42722  51.6396  26.0568 0006143 125.2657 234.8911 15.59665451 26360
UNSW-ECO                
1 42723U 98067MC  17314.42432530  .00028215  00000-0  32821-3 0  9994
2 42723  51.6401  25.2768 0005537 121.8112 238.3421 15.61470071 26354
DUTHSAT                 
1 42724U 98067MD  17314.42741985  .00037167  00000-0  40322-3 0  9993
2 42724  51.6386  24.5429 0004092 115.4399 244.7019 15.63133273 26282
LILACSAT-1              
1 42725U 98067ME  17314.41593776  .00023775  00000-0  29089-3 0  9993
2 42725  51.6394  25.9698 0004908 125.1743 234.9711 15.60255656 26267
NSIGHT-1                
1 42726U 98067MF  17314.51085321  .00011740  00000-0  16097-3 0  9991
2 42726  51.6406  26.6100 0005867 131.5224 228.6272 15.57828548 26273
SNUSAT-1                
1 42727U 98067MG  17314.41524743  .00025072  00000-0  30799-3 0  9995
2 42727  51.6384  25.9515 0007119  86.6822 273.4986 15.60103027 26235
QBITO                   
1 42728U 98067MH  17314.44565813  .00024327  00000-0  29122-3 0  9992
2 42728  51.6409  25.4308 0002343 122.6131 237.5089 15.60821888 26087
AALTO-2                 
1 42729U 98067MJ  17314.44479425  .00024420  00000-0  29172-3 0  9995
2 42729  51.6397  25.4152 0002260 120.9198 239.2018 15.60875160 26097
SUSAT                   
1 42730U 98067MK  17314.45825335  .00023357  00000-0  28267-3 0  9995
2 42730  51.6392  25.5005 0002486 119.3212 240.8030 15.60562331 26085
I-INSPIRE II            
1 42731U 98067ML  17314.47539177  .00027494  00000-0  31695-3 0  9999
2 42731  51.6382  24.8507 0006622  69.3468 290.8235 15.61712517 26140
POLYITAN-2-SAU          
1 42732U 98067MM  17314.43740742  .00024941  00000-0  29604-3 0  9999
2 42732  51.6389  25.3501 0006681  70.6766 289.4949 15.61010744 26137
SNUSAT-1B               
1 42733U 98067MN  17314.45841618  .00023101  00000-0  27977-3 0  9994
2 42733  51.6393  25.4934 0006756  73.9521 286.2216 15.60532049 26130
EXALTA-1                
1 42734U 98067MP  17314.48022467  .00028832  00000-0  33316-3 0  9991
2 42734  51.6383  24.8854 0007350  96.2861 263.8970 15.61618372 26098
AOXIANG-1               
1 42735U 98067MQ  17314.48703891  .00021572  00000-0  26921-3 0  9997
2 42735  51.6388  25.6882 0006739 122.4373 237.7272 15.59788422 27507
BEEAGLESAT              
1 42736U 98067MR  17314.41035158  .00024026  00000-0  29468-3 0  9991
2 42736  51.6388  25.9254 0006479 119.8940 240.2697 15.60176268 26189
ATLANTIS                
1 42737U 98067MS  17314.45159837  .00068127  00000-0  60486-3 0  9992
2 42737  51.6358  22.4265 0004428  86.5730 273.5773 15.67896485 26125
PROGRESS-MS 06          
1 42756U 17033A   17313.56535315  .00003607  00000-0  61797-4 0  9996
2 42756  51.6434  33.5885 0004389  96.9884 354.6238 15.54092107 23054
ISS DEB (ROSA)          
1 42813U 98067MT  17314.45080989  .00107906  00000-0  89111-3 0  9993
2 42813  51.6361  23.9311 0005700  35.1932 324.9440 15.69460907 21507
SOYUZ-MS 05             
1 42898U 17043A   17313.56535315  .00003607  00000-0  61797-4 0  9994
2 42898  51.6434  33.5885 0004389  96.9884 354.6238 15.54092107 16165
SOYUZ-MS 06             
1 42937U 17054A   17313.56535315  .00003607  00000-0  61797-4 0  9990
2 42937  51.6434  33.5885 0004389  96.9884 354.6238 15.54092107  8979
PROGRESS-MS 07          
1 42971U 17065A   17313.56535315  .00003607  00000-0  61797-4 0  9990
2 42971  51.6434  33.5885 0004389  96.9884 354.6238 15.54092107  4085
KESTREL EYE IIM (KE2M)  
1 42982U 98067NE  17305.65629569  .00008919  00000-0  13962-3 0  9990
2 42982  51.6411  72.9984 0005406  84.5747  14.7663 15.54559432  1274
SIMPL                   
1 42983U 98067NF  17314.39557731  .00006256  00000-0  99973-4 0  9992
2 42983  51.6438  29.4159 0005570 112.7315 324.5111 15.54597330  2160
